CCSDS_OMM_VERS = 2.0
CREATION_DATE  = 
ORIGINATOR     = 

OBJECT_NAME    = UNKNOWN
OBJECT_ID      = 
CENTER_NAME    = EARTH
REF_FRAME      = TEME
TIME_SYSTEM    = UTC
MEAN_ELEMENT_THEORY = SGP/SGP4

EPOCH          = 2026-01-25T04:23:51.239616
MEAN_MOTION    = 12.76568346
ECCENTRICITY   = .00508001
INCLINATION    = 101.1041
RA_OF_ASC_NODE = 11.9323
ARG_OF_PERICENTER = 179.5162
MEAN_ANOMALY   = 180.5983

EPHEMERIS_TYPE = 0
CLASSIFICATION_TYPE = U
NORAD_CAT_ID   = 270161
ELEMENT_SET_NO = 999
REV_AT_EPOCH   = 28672
BSTAR          = .31657163E-2
MEAN_MOTION_DOT = .647E-5
MEAN_MOTION_DDOT = 0

CCSDS_OMM_VERS = 2.0
CREATION_DATE  = 
ORIGINATOR     = 

OBJECT_NAME    = UNKNOWN
OBJECT_ID      = 
CENTER_NAME    = EARTH
REF_FRAME      = TEME
TIME_SYSTEM    = UTC
MEAN_ELEMENT_THEORY = SGP/SGP4

EPOCH          = 2026-01-23T16:58:35.469408
MEAN_MOTION    = 12.64524411
ECCENTRICITY   = .09258362
INCLINATION    = 28.8484
RA_OF_ASC_NODE = 43.6273
ARG_OF_PERICENTER = 205.7321
MEAN_ANOMALY   = 149.4191

EPHEMERIS_TYPE = 0
CLASSIFICATION_TYPE = U
NORAD_CAT_ID   = 270162
ELEMENT_SET_NO = 999
REV_AT_EPOCH   = 28356
BSTAR          = .81907794E-3
MEAN_MOTION_DOT = .935E-5
MEAN_MOTION_DDOT = 0

CCSDS_OMM_VERS = 2.0
CREATION_DATE  = 
ORIGINATOR     = 

OBJECT_NAME    = UNKNOWN
OBJECT_ID      = 
CENTER_NAME    = EARTH
REF_FRAME      = TEME
TIME_SYSTEM    = UTC
MEAN_ELEMENT_THEORY = SGP/SGP4

EPOCH          = 2026-01-25T04:57:33.347808
MEAN_MOTION    = 12.99994838
ECCENTRICITY   = .00254598
INCLINATION    = 90.2426
RA_OF_ASC_NODE = 8.0545
ARG_OF_PERICENTER = 289.9721
MEAN_ANOMALY   = 69.8659

EPHEMERIS_TYPE = 0
CLASSIFICATION_TYPE = U
NORAD_CAT_ID   = 270164
ELEMENT_SET_NO = 999
REV_AT_EPOCH   = 29140
BSTAR          = -.12153324E-2
MEAN_MOTION_DOT = -.359E-5
MEAN_MOTION_DDOT = 0

CCSDS_OMM_VERS = 2.0
CREATION_DATE  = 
ORIGINATOR     = 

OBJECT_NAME    = UNKNOWN
OBJECT_ID      = 
CENTER_NAME    = EARTH
REF_FRAME      = TEME
TIME_SYSTEM    = UTC
MEAN_ELEMENT_THEORY = SGP/SGP4

EPOCH          = 2026-01-21T16:48:37.039680
MEAN_MOTION    = 12.95691305
ECCENTRICITY   = .00416747
INCLINATION    = 90.2404
RA_OF_ASC_NODE = 8.9399
ARG_OF_PERICENTER = 220.7006
MEAN_ANOMALY   = 139.0997

EPHEMERIS_TYPE = 0
CLASSIFICATION_TYPE = U
NORAD_CAT_ID   = 270165
ELEMENT_SET_NO = 999
REV_AT_EPOCH   = 28949
BSTAR          = .96091718E-3
MEAN_MOTION_DOT = .28E-5
MEAN_MOTION_DDOT = 0

CCSDS_OMM_VERS = 2.0
CREATION_DATE  = 
ORIGINATOR     = 

OBJECT_NAME    = UNKNOWN
OBJECT_ID      = 
CENTER_NAME    = EARTH
REF_FRAME      = TEME
TIME_SYSTEM    = UTC
MEAN_ELEMENT_THEORY = SGP/SGP4

EPOCH          = 2026-01-23T07:33:21.667968
MEAN_MOTION    = 14.31242414
ECCENTRICITY   = .00060409
INCLINATION    = 98.7486
RA_OF_ASC_NODE = 44.3426
ARG_OF_PERICENTER = 117.4786
MEAN_ANOMALY   = 242.7011

EPHEMERIS_TYPE = 0
CLASSIFICATION_TYPE = U
NORAD_CAT_ID   = 270166
ELEMENT_SET_NO = 999
REV_AT_EPOCH   = 32107
BSTAR          = .25291503E-3
MEAN_MOTION_DOT = .623E-5
MEAN_MOTION_DDOT = 0

CCSDS_OMM_VERS = 2.0
CREATION_DATE  = 
ORIGINATOR     = 

OBJECT_NAME    = UNKNOWN
OBJECT_ID      = 
CENTER_NAME    = EARTH
REF_FRAME      = TEME
TIME_SYSTEM    = UTC
MEAN_ELEMENT_THEORY = SGP/SGP4

EPOCH          = 2026-01-19T18:39:23.198976
MEAN_MOTION    = 11.48033593
ECCENTRICITY   = .07015798
INCLINATION    = 65.7392
RA_OF_ASC_NODE = 53.8914
ARG_OF_PERICENTER = 183.1244
MEAN_ANOMALY   = 176.5190

EPHEMERIS_TYPE = 0
CLASSIFICATION_TYPE = U
NORAD_CAT_ID   = 270167
ELEMENT_SET_NO = 999
REV_AT_EPOCH   = 25746
BSTAR          = -.85190296E-3
MEAN_MOTION_DOT = -.109E-5
MEAN_MOTION_DDOT = 0

CCSDS_OMM_VERS = 2.0
CREATION_DATE  = 
ORIGINATOR     = 

OBJECT_NAME    = UNKNOWN
OBJECT_ID      = 
CENTER_NAME    = EARTH
REF_FRAME      = TEME
TIME_SYSTEM    = UTC
MEAN_ELEMENT_THEORY = SGP/SGP4

EPOCH          = 2026-01-24T12:52:12.330048
MEAN_MOTION    = 14.38950854
ECCENTRICITY   = .00660815
INCLINATION    = 86.1992
RA_OF_ASC_NODE = 322.7683
ARG_OF_PERICENTER = 109.0933
MEAN_ANOMALY   = 251.7437

EPHEMERIS_TYPE = 0
CLASSIFICATION_TYPE = U
NORAD_CAT_ID   = 270168
ELEMENT_SET_NO = 999
REV_AT_EPOCH   = 32122
BSTAR          = .20326007E-2
MEAN_MOTION_DOT = .6448E-4
MEAN_MOTION_DDOT = 0

CCSDS_OMM_VERS = 2.0
CREATION_DATE  = 
ORIGINATOR     = 

OBJECT_NAME    = UNKNOWN
OBJECT_ID      = 
CENTER_NAME    = EARTH
REF_FRAME      = TEME
TIME_SYSTEM    = UTC
MEAN_ELEMENT_THEORY = SGP/SGP4

EPOCH          = 2026-01-21T13:00:14.101632
MEAN_MOTION    = 13.42952707
ECCENTRICITY   = .02090062
INCLINATION    = 83.0019
RA_OF_ASC_NODE = 115.9120
ARG_OF_PERICENTER = 88.4638
MEAN_ANOMALY   = 274.0429

EPHEMERIS_TYPE = 0
CLASSIFICATION_TYPE = U
NORAD_CAT_ID   = 270169
ELEMENT_SET_NO = 999
REV_AT_EPOCH   = 30144
BSTAR          = .11988807E-2
MEAN_MOTION_DOT = .793E-5
MEAN_MOTION_DDOT = 0

CCSDS_OMM_VERS = 2.0
CREATION_DATE  = 
ORIGINATOR     = 

OBJECT_NAME    = UNKNOWN
OBJECT_ID      = 
CENTER_NAME    = EARTH
REF_FRAME      = TEME
TIME_SYSTEM    = UTC
MEAN_ELEMENT_THEORY = SGP/SGP4

EPOCH          = 2026-01-23T04:40:53.146848
MEAN_MOTION    = 14.41623047
ECCENTRICITY   = .00158515
INCLINATION    = 65.0039
RA_OF_ASC_NODE = 201.8538
ARG_OF_PERICENTER = 283.3851
MEAN_ANOMALY   = 76.5471

EPHEMERIS_TYPE = 0
CLASSIFICATION_TYPE = U
NORAD_CAT_ID   = 270170
ELEMENT_SET_NO = 999
REV_AT_EPOCH   = 32282
BSTAR          = .9109E-3
MEAN_MOTION_DOT = .2875E-4
MEAN_MOTION_DDOT = 0

CCSDS_OMM_VERS = 2.0
CREATION_DATE  = 
ORIGINATOR     = 

OBJECT_NAME    = UNKNOWN
OBJECT_ID      = 
CENTER_NAME    = EARTH
REF_FRAME      = TEME
TIME_SYSTEM    = UTC
MEAN_ELEMENT_THEORY = SGP/SGP4

EPOCH          = 2026-01-13T07:18:40.421664
MEAN_MOTION    = 11.95838149
ECCENTRICITY   = .0019367
INCLINATION    = 82.4219
RA_OF_ASC_NODE = 36.7265
ARG_OF_PERICENTER = 261.5824
MEAN_ANOMALY   = 98.3033

EPHEMERIS_TYPE = 0
CLASSIFICATION_TYPE = U
NORAD_CAT_ID   = 270171
ELEMENT_SET_NO = 999
REV_AT_EPOCH   = 26712
BSTAR          = .42830333E-2
MEAN_MOTION_DOT = .337E-5
MEAN_MOTION_DDOT = 0

CCSDS_OMM_VERS = 2.0
CREATION_DATE  = 
ORIGINATOR     = 

OBJECT_NAME    = UNKNOWN
OBJECT_ID      = 
CENTER_NAME    = EARTH
REF_FRAME      = TEME
TIME_SYSTEM    = UTC
MEAN_ELEMENT_THEORY = SGP/SGP4

EPOCH          = 2026-01-26T05:48:33.502752
MEAN_MOTION    = 14.45643097
ECCENTRICITY   = .00254278
INCLINATION    = 86.3744
RA_OF_ASC_NODE = 22.5648
ARG_OF_PERICENTER = 13.2141
MEAN_ANOMALY   = 346.9721

EPHEMERIS_TYPE = 0
CLASSIFICATION_TYPE = U
NORAD_CAT_ID   = 270172
ELEMENT_SET_NO = 999
REV_AT_EPOCH   = 32378
BSTAR          = .85194216E-3
MEAN_MOTION_DOT = .3042E-4
MEAN_MOTION_DDOT = 0

CCSDS_OMM_VERS = 2.0
CREATION_DATE  = 
ORIGINATOR     = 

OBJECT_NAME    = UNKNOWN
OBJECT_ID      = 
CENTER_NAME    = EARTH
REF_FRAME      = TEME
TIME_SYSTEM    = UTC
MEAN_ELEMENT_THEORY = SGP/SGP4

EPOCH          = 2026-01-25T12:10:08.985216
MEAN_MOTION    = 14.85362000
ECCENTRICITY   = .00018164
INCLINATION    = 86.6019
RA_OF_ASC_NODE = 47.2963
ARG_OF_PERICENTER = 95.9810
MEAN_ANOMALY   = 264.1621

EPHEMERIS_TYPE = 0
CLASSIFICATION_TYPE = U
NORAD_CAT_ID   = 270173
ELEMENT_SET_NO = 999
REV_AT_EPOCH   = 33055
BSTAR          = .6017186E-3
MEAN_MOTION_DOT = .5201E-4
MEAN_MOTION_DDOT = 0

CCSDS_OMM_VERS = 2.0
CREATION_DATE  = 
ORIGINATOR     = 

OBJECT_NAME    = UNKNOWN
OBJECT_ID      = 
CENTER_NAME    = EARTH
REF_FRAME      = TEME
TIME_SYSTEM    = UTC
MEAN_ELEMENT_THEORY = SGP/SGP4

EPOCH          = 2026-01-23T06:43:08.671008
MEAN_MOTION    = 11.49750897
ECCENTRICITY   = .09521309
INCLINATION    = 63.3955
RA_OF_ASC_NODE = 17.6729
ARG_OF_PERICENTER = 317.6361
MEAN_ANOMALY   = 35.4699

EPHEMERIS_TYPE = 0
CLASSIFICATION_TYPE = U
NORAD_CAT_ID   = 270174
ELEMENT_SET_NO = 999
REV_AT_EPOCH   = 25872
BSTAR          = -.5795546E-3
MEAN_MOTION_DOT = -.128E-5
MEAN_MOTION_DDOT = 0

CCSDS_OMM_VERS = 2.0
CREATION_DATE  = 
ORIGINATOR     = 

OBJECT_NAME    = UNKNOWN
OBJECT_ID      = 
CENTER_NAME    = EARTH
REF_FRAME      = TEME
TIME_SYSTEM    = UTC
MEAN_ELEMENT_THEORY = SGP/SGP4

EPOCH          = 2026-01-18T13:24:37.513728
MEAN_MOTION    = 12.21087466
ECCENTRICITY   = .08286917
INCLINATION    = 83.3251
RA_OF_ASC_NODE = 119.2336
ARG_OF_PERICENTER = 259.6015
MEAN_ANOMALY   = 91.0728

EPHEMERIS_TYPE = 0
CLASSIFICATION_TYPE = U
NORAD_CAT_ID   = 270175
ELEMENT_SET_NO = 999
REV_AT_EPOCH   = 27343
BSTAR          = .81169743E-2
MEAN_MOTION_DOT = .2574E-4
MEAN_MOTION_DDOT = 0

CCSDS_OMM_VERS = 2.0
CREATION_DATE  = 
ORIGINATOR     = 

OBJECT_NAME    = UNKNOWN
OBJECT_ID      = 
CENTER_NAME    = EARTH
REF_FRAME      = TEME
TIME_SYSTEM    = UTC
MEAN_ELEMENT_THEORY = SGP/SGP4

EPOCH          = 2026-01-25T14:42:20.860416
MEAN_MOTION    = 13.04467368
ECCENTRICITY   = .00282219
INCLINATION    = 90.2286
RA_OF_ASC_NODE = 353.8892
ARG_OF_PERICENTER = 223.8891
MEAN_ANOMALY   = 135.9991

EPHEMERIS_TYPE = 0
CLASSIFICATION_TYPE = U
NORAD_CAT_ID   = 270176
ELEMENT_SET_NO = 999
REV_AT_EPOCH   = 29219
BSTAR          = .70085091E-3
MEAN_MOTION_DOT = .233E-5
MEAN_MOTION_DDOT = 0

CCSDS_OMM_VERS = 2.0
CREATION_DATE  = 
ORIGINATOR     = 

OBJECT_NAME    = UNKNOWN
OBJECT_ID      = 
CENTER_NAME    = EARTH
REF_FRAME      = TEME
TIME_SYSTEM    = UTC
MEAN_ELEMENT_THEORY = SGP/SGP4

EPOCH          = 2026-01-10T22:02:21.461280
MEAN_MOTION    = 12.53612860
ECCENTRICITY   = .00982394
INCLINATION    = 100.9049
RA_OF_ASC_NODE = 80.0461
ARG_OF_PERICENTER = 234.7759
MEAN_ANOMALY   = 124.4090

EPHEMERIS_TYPE = 0
CLASSIFICATION_TYPE = U
NORAD_CAT_ID   = 270177
ELEMENT_SET_NO = 999
REV_AT_EPOCH   = 27964
BSTAR          = .21765894E-2
MEAN_MOTION_DOT = .313E-5
MEAN_MOTION_DDOT = 0

